NORAD_CAT_ID,OBJECT_NAME,OBJECT_TYPE,EPOCH,MEAN_MOTION,ECCENTRICITY,INCLINATION,RA_OF_ASC_NODE,ARG_OF_PERICENTER,MEAN_ANOMALY,BSTAR,MEAN_MOTION_DOT,MEAN_MOTION_DDOT,TLE_LINE0,TLE_LINE1,TLE_LINE2,SEMIMAJOR_AXIS,PERIOD,APOGEE,PERIGEE,DECAYED
51750.0,STARLINK-3505,PAYLOAD,2022-12-11 20:35:57,15.08833607,0.0003135,53.2175,223.5535,34.8731,325.2466,5.7859e-05,6.32e-06,0.0,0 STARLINK-3505,1 51750U 22016AN  22345.85830997  .00000632  00000-0  57859-4 0  9993,2 51750  53.2175 223.5535 0003135  34.8731 325.2466 15.08833607 46106,6917.9,95.438,541.934,537.596,0.0
51750.0,STARLINK-3505,PAYLOAD,2022-12-11 23:46:44,15.08837155,0.0003146,53.2175,222.9589,34.9332,325.1866,8.476700000000001e-05,1.061e-05,0.0,0 STARLINK-3505,1 51750U 22016AN  22345.99078754  .00001061  00000-0  84767-4 0  9998,2 51750  53.2175 222.9589 0003146  34.9332 325.1866 15.08837155 45001,6917.889,95.438,541.93,537.578,0.0
51750.0,STARLINK-3505,PAYLOAD,2022-12-12 15:40:35,15.08835058,0.0003315,53.2171,219.9872,34.5773,325.5434,8.305299999999999e-05,1.033e-05,0.0,0 STARLINK-3505,1 51750U 22016AN  22346.65319112  .00001033  00000-0  83053-4 0  9994,2 51750  53.2171 219.9872 0003315  34.5773 325.5434 15.08835058 45107,6917.895,95.438,542.054,537.467,0.0
51750.0,STARLINK-3505,PAYLOAD,2022-12-12 22:02:08,15.08839439,0.0003222,53.2166,218.7994,34.4083,325.7117,6.6516e-05,7.699999999999999e-06,0.0,0 STARLINK-3505,1 51750U 22016AN  22346.91814902  .00000770  00000-0  66516-4 0  9992,2 51750  53.2166 218.7994 0003222  34.4083 325.7117 15.08839439 46268,6917.882,95.438,541.976,537.518,0.0
51750.0,STARLINK-3505,PAYLOAD,2022-12-13 09:09:50,15.08833798,0.0002691,53.2157,216.7157,34.927,325.1898,-1.4064e-05,-5.12e-06,0.0,0 STARLINK-3505,1 51750U 22016AN  22347.38183544 -.00000512  00000-0 -14064-4 0  9992,2 51750  53.2157 216.7157 0002691  34.9270 325.1898 15.08833798 46339,6917.899,95.438,541.626,537.903,0.0
51750.0,STARLINK-3505,PAYLOAD,2022-12-13 23:28:18,15.08837723,0.0002675,53.2154,214.0383,30.276,329.8386,1.8787e-05,1e-07,0.0,0 STARLINK-3505,1 51750U 22016AN  22347.97799304  .00000010  00000-0  18787-4 0  9991,2 51750  53.2154 214.0383 0002675  30.2760 329.8386 15.08837723 45304,6917.887,95.438,541.6030000000002,537.9019999999998,0.0
51750.0,STARLINK-3505,PAYLOAD,2022-12-14 21:43:42,15.08834875,0.0002759,53.2152,209.8762,28.5162,331.5981,4.1639e-05,3.74e-06,0.0,0 STARLINK-3505,1 51750U 22016AN  22348.90535650  .00000374  00000-0  41639-4 0  9992,2 51750  53.2152 209.8762 0002759  28.5162 331.5981 15.08834875 45445,6917.896,95.438,541.67,537.852,0.0
51750.0,STARLINK-3505,PAYLOAD,2022-12-15 00:54:28,15.0883653,0.0002792,53.2151,209.2812,29.6926,330.4224,4.7852e-05,4.73e-06,0.0,0 STARLINK-3505,1 51750U 22016AN  22349.03783558  .00000473  00000-0  47852-4 0  9992,2 51750  53.2151 209.2812 0002792  29.6926 330.4224 15.08836530 45461,6917.891,95.438,541.687,537.825,0.0
51750.0,STARLINK-3505,PAYLOAD,2022-12-15 15:12:58,15.08827381,0.0002888,53.2154,206.6044,33.1141,327.0032,-2.3132e-05,-6.57e-06,0.0,0 STARLINK-3505,1 51750U 22016AN  22349.63400745 -.00000657  00000-0 -23132-4 0  9993,2 51750  53.2154 206.6044 0002888  33.1141 327.0032 15.08827381 46674,6917.919,95.438,541.7819999999998,537.786,0.0
51750.0,STARLINK-3505,PAYLOAD,2022-12-15 19:59:07,15.0883184,0.0002655,53.2159,205.7107,35.4947,324.6221,3.4053e-06,-2.34e-06,0.0,0 STARLINK-3505,1 51750U 22016AN  22349.83272421 -.00000234  00000-0  34053-5 0  9998,2 51750  53.2159 205.7107 0002655  35.4947 324.6221 15.08831840 45587,6917.905,95.438,541.607,537.934,0.0
51750.0,STARLINK-3505,PAYLOAD,2022-12-16 00:45:16,15.0883311,0.0002842,53.2155,204.8204,32.8902,327.2267,3.6034e-05,2.85e-06,0.0,0 STARLINK-3505,1 51750U 22016AN  22350.03144395  .00000285  00000-0  36034-4 0  9995,2 51750  53.2155 204.8204 0002842  32.8902 327.2267 15.08833110 46730,6917.901,95.438,541.7330000000002,537.8,0.0
51750.0,STARLINK-3505,PAYLOAD,2022-12-16 13:28:21,15.0883532,0.0002868,53.2162,202.4423,36.0343,324.0842,5.6493e-05,6.11e-06,0.0,0 STARLINK-3505,1 51750U 22016AN  22350.56136421  .00000611  00000-0  56493-4 0  9998,2 51750  53.2162 202.4423 0002868  36.0343 324.0842 15.08835320 45691,6917.895,95.438,541.744,537.776,0.0
51750.0,STARLINK-3505,PAYLOAD,2022-12-16 19:49:55,15.08827257,0.000287,53.2165,201.2523,35.7337,324.3847,-1.463e-05,-5.21e-06,0.0,0 STARLINK-3505,1 51750U 22016AN  22350.82633340 -.00000521  00000-0 -14630-4 0  9998,2 51750  53.2165 201.2523 0002870  35.7337 324.3847 15.08827257 46851,6917.919,95.438,541.77,537.799,0.0
51750.0,STARLINK-3505,PAYLOAD,2022-12-17 13:19:10,15.08826939,0.0002874,53.2165,197.9812,35.4685,324.6498,8.9723e-05,1.139e-05,0.0,0 STARLINK-3505,1 51750U 22016AN  22351.55497686  .00001139  00000-0  89723-4 0  9999,2 51750  53.2165 197.9812 0002874  35.4685 324.6498 15.08826939 45849,6917.92,95.438,541.774,537.797,0.0
51750.0,STARLINK-3505,PAYLOAD,2022-12-17 18:05:19,15.08833326,0.0002863,53.2167,197.0893,36.1222,323.9963,6.1406e-05,6.89e-06,0.0,0 STARLINK-3505,1 51750U 22016AN  22351.75369489  .00000689  00000-0  61406-4 0  9997,2 51750  53.2167 197.0893 0002863  36.1222 323.9963 15.08833326 46998,6917.901,95.438,541.746,537.785,0.0
51750.0,STARLINK-3505,PAYLOAD,2022-12-17 19:40:42,15.08833686,0.0002872,53.2166,196.7919,36.2667,323.8520000000001,6.3716e-05,7.25e-06,0.0,0 STARLINK-3505,1 51750U 22016AN  22351.81993501  .00000725  00000-0  63716-4 0  9999,2 51750  53.2166 196.7919 0002872  36.2667 323.8520 15.08833686 45880,6917.9,95.438,541.752,537.778,0.0
51750.0,STARLINK-3505,PAYLOAD,2022-12-18 13:09:56,15.08839317,0.0002885,53.2164,193.5209,36.8264,323.2926,6.322399999999999e-05,7.18e-06,0.0,0 STARLINK-3505,1 51750U 22016AN  22352.54857357  .00000718  00000-0  63224-4 0  9994,2 51750  53.2164 193.5209 0002885  36.8264 323.2926 15.08839317 45991,6917.882,95.438,541.743,537.752,0.0
51750.0,STARLINK-3505,PAYLOAD,2022-12-18 19:31:29,15.08836978,0.0002906,53.2159,192.3314,37.0879,323.0314,0.00016001,2.259e-05,0.0,0 STARLINK-3505,1 51750U 22016AN  22352.81353304  .00002259  00000-0  16001-3 0  9999,2 51750  53.2159 192.3314 0002906  37.0879 323.0314 15.08836978 46033,6917.89,95.438,541.765,537.744,0.0
51750.0,STARLINK-3505,PAYLOAD,2022-12-19 00:17:38,15.08839701,0.0002929,53.216,191.4393,37.6992,322.4205,0.00018215,2.612e-05,0.0,0 STARLINK-3505,1 51750U 22016AN  22353.01225215  .00002612  00000-0  18215-3 0  9993,2 51750  53.2160 191.4393 0002929  37.6992 322.4205 15.08839701 47185,6917.880999999999,95.438,541.773,537.72,0.0
51750.0,STARLINK-3505,PAYLOAD,2022-12-19 06:39:11,15.08837458,0.000295,53.2161,190.2499,38.3597,321.7604,0.00013681,1.889e-05,0.0,0 STARLINK-3505,1 51750U 22016AN  22353.27721617  .00001889  00000-0  13681-3 0  9995,2 51750  53.2161 190.2499 0002950  38.3597 321.7604 15.08837458 46106,6917.888000000001,95.438,541.794,537.712,0.0
51750.0,STARLINK-3505,PAYLOAD,2022-12-19 19:22:16,15.08840514,0.0002959,53.2161,187.871,40.3797,319.7414,0.00011007,1.464e-05,0.0,0 STARLINK-3505,1 51750U 22016AN  22353.80713540  .00001464  00000-0  11007-3 0  9999,2 51750  53.2161 187.8710 0002959  40.3797 319.7414 15.08840514 46189,6917.879,95.438,541.7909999999998,537.697,0.0
51750.0,STARLINK-3505,PAYLOAD,2022-12-20 12:51:31,15.08836858,0.0003033,53.2161,184.6003,42.1789,317.9436,2.4967e-05,1.09e-06,0.0,0 STARLINK-3505,1 51750U 22016AN  22354.53578038  .00000109  00000-0  24967-4 0  9996,2 51750  53.2161 184.6003 0003033  42.1789 317.9436 15.08836858 46296,6917.89,95.438,541.8530000000002,537.6569999999998,0.0
51750.0,STARLINK-3505,PAYLOAD,2022-12-21 12:42:18,15.08840436,0.0003029,53.216,180.1396,44.3377,315.7858,6.097e-05,6.82e-06,0.0,0 STARLINK-3505,1 51750U 22016AN  22355.52937630  .00000682  00000-0  60970-4 0  9993,2 51750  53.2160 180.1396 0003029  44.3377 315.7858 15.08840436 47565,6917.879,95.438,541.839,537.649,0.0
51750.0,STARLINK-3505,PAYLOAD,2022-12-21 22:14:36,15.0883991,0.0003054,53.2163,178.3559,45.108,315.016,3.8803e-05,3.29e-06,0.0,0 STARLINK-3505,1 51750U 22016AN  22355.92681708  .00000329  00000-0  38803-4 0  9997,2 51750  53.2163 178.3559 0003054  45.1080 315.0160 15.08839910 46503,6917.880999999999,95.438,541.8580000000002,537.633,0.0
51750.0,STARLINK-3505,PAYLOAD,2022-12-22 18:54:39,15.0882511,0.0003055,53.2161,174.4898,47.1036,313.0213,-2.3888e-05,-6.69e-06,0.0,0 STARLINK-3505,1 51750U 22016AN  22356.78795215 -.00000669  00000-0 -23888-4 0  9997,2 51750  53.2161 174.4898 0003055  47.1036 313.0213 15.08825110 46636,6917.926,95.438,541.904,537.677,0.0
51750.0,STARLINK-3505,PAYLOAD,2022-12-22 22:05:25,15.08828655,0.0003023,53.2165,173.8951,48.0566,312.0684,-4.2592e-06,-3.56e-06,0.0,0 STARLINK-3505,1 51750U 22016AN  22356.92043056 -.00000356  00000-0 -42592-5 0  9999,2 51750  53.2165 173.8951 0003023  48.0566 312.0684 15.08828655 47770,6917.915,95.438,541.871,537.689,0.0
51750.0,STARLINK-3505,PAYLOAD,2022-12-23 12:23:53,15.08835821,0.0003003999999999,53.2169,171.2174,48.9282,311.1969,-4.2337e-06,-3.56e-06,0.0,0 STARLINK-3505,1 51750U 22016AN  22357.51658860 -.00000356  00000-0 -42337-5 0  9997,2 51750  53.2169 171.2174 0003004  48.9282 311.1969 15.08835821 47865,6917.893,95.438,541.836,537.68,0.0
51750.0,STARLINK-3505,PAYLOAD,2022-12-23 18:45:25,15.08835935,0.0003042,53.2168,170.0284,48.3288,311.7964,2.1228e-05,4.9e-07,0.0,0 STARLINK-3505,1 51750U 22016AN  22357.78154859  .00000049  00000-0  21228-4 0  9997,2 51750  53.2168 170.0284 0003042  48.3288 311.7964 15.08835935 46782,6917.893,95.438,541.862,537.653,0.0
51750.0,STARLINK-3505,PAYLOAD,2022-12-24 12:14:40,15.08836981,0.000304,53.2163,166.7575,47.5257,312.5992,9.3981e-05,1.207e-05,0.0,0 STARLINK-3505,1 51750U 22016AN  22358.51018861  .00001207  00000-0  93981-4 0  9993,2 51750  53.2163 166.7575 0003040  47.5257 312.5992 15.08836981 46891,6917.89,95.438,541.8580000000002,537.6519999999998,0.0
